CCSDS_OMM_VERS = 2.0
CREATION_DATE  = 
ORIGINATOR     = 

OBJECT_NAME    = STARLINK-35583
OBJECT_ID      = 2025-270Z
CENTER_NAME    = EARTH
REF_FRAME      = TEME
TIME_SYSTEM    = UTC
MEAN_ELEMENT_THEORY = SGP/SGP4

EPOCH          = 2025-12-03T10:58:19.678080
MEAN_MOTION    = 15.77467243
ECCENTRICITY   = .0004063
INCLINATION    = 43.0004
RA_OF_ASC_NODE = 247.8753
ARG_OF_PERICENTER = 354.2877
MEAN_ANOMALY   = 5.7946

EPHEMERIS_TYPE = 0
CLASSIFICATION_TYPE = U
NORAD_CAT_ID   = 66611
ELEMENT_SET_NO = 999
REV_AT_EPOCH   = 300
BSTAR          = .42582E-3
MEAN_MOTION_DOT = .72977E-3
MEAN_MOTION_DDOT = 0

CCSDS_OMM_VERS = 2.0
CREATION_DATE  = 
ORIGINATOR     = 

OBJECT_NAME    = STARLINK-36039
OBJECT_ID      = 2025-270AA
CENTER_NAME    = EARTH
REF_FRAME      = TEME
TIME_SYSTEM    = UTC
MEAN_ELEMENT_THEORY = SGP/SGP4

EPOCH          = 2025-12-03T10:57:48.968064
MEAN_MOTION    = 15.77433241
ECCENTRICITY   = .0004022
INCLINATION    = 43.0004
RA_OF_ASC_NODE = 247.8729
ARG_OF_PERICENTER = 347.0774
MEAN_ANOMALY   = 12.9993

EPHEMERIS_TYPE = 0
CLASSIFICATION_TYPE = U
NORAD_CAT_ID   = 66612
ELEMENT_SET_NO = 999
REV_AT_EPOCH   = 289
BSTAR          = .64819E-3
MEAN_MOTION_DOT = .111686E-2
MEAN_MOTION_DDOT = 0

CCSDS_OMM_VERS = 2.0
CREATION_DATE  = 
ORIGINATOR     = 

OBJECT_NAME    = STARLINK-36037
OBJECT_ID      = 2025-270AB
CENTER_NAME    = EARTH
REF_FRAME      = TEME
TIME_SYSTEM    = UTC
MEAN_ELEMENT_THEORY = SGP/SGP4

EPOCH          = 2025-12-03T10:57:19.045152
MEAN_MOTION    = 15.77412165
ECCENTRICITY   = .0004122
INCLINATION    = 43.0001
RA_OF_ASC_NODE = 247.8703
ARG_OF_PERICENTER = 349.4174
MEAN_ANOMALY   = 10.6608

EPHEMERIS_TYPE = 0
CLASSIFICATION_TYPE = U
NORAD_CAT_ID   = 66613
ELEMENT_SET_NO = 999
REV_AT_EPOCH   = 289
BSTAR          = .72767E-3
MEAN_MOTION_DOT = .125531E-2
MEAN_MOTION_DDOT = 0

CCSDS_OMM_VERS = 2.0
CREATION_DATE  = 
ORIGINATOR     = 

OBJECT_NAME    = STARLINK-36040
OBJECT_ID      = 2025-270AC
CENTER_NAME    = EARTH
REF_FRAME      = TEME
TIME_SYSTEM    = UTC
MEAN_ELEMENT_THEORY = SGP/SGP4

EPOCH          = 2025-12-03T10:56:20.184288
MEAN_MOTION    = 15.77424418
ECCENTRICITY   = .0004154
INCLINATION    = 42.9981
RA_OF_ASC_NODE = 247.8663
ARG_OF_PERICENTER = 354.0514
MEAN_ANOMALY   = 6.0306

EPHEMERIS_TYPE = 0
CLASSIFICATION_TYPE = U
NORAD_CAT_ID   = 66614
ELEMENT_SET_NO = 999
REV_AT_EPOCH   = 273
BSTAR          = .1072E-2
MEAN_MOTION_DOT = .186612E-2
MEAN_MOTION_DDOT = 0

CCSDS_OMM_VERS = 2.0
CREATION_DATE  = 
ORIGINATOR     = 

OBJECT_NAME    = STARLINK-35988
OBJECT_ID      = 2025-270AD
CENTER_NAME    = EARTH
REF_FRAME      = TEME
TIME_SYSTEM    = UTC
MEAN_ELEMENT_THEORY = SGP/SGP4

EPOCH          = 2025-12-03T10:56:49.071264
MEAN_MOTION    = 15.77383510
ECCENTRICITY   = .0003977
INCLINATION    = 43.0005
RA_OF_ASC_NODE = 247.8673
ARG_OF_PERICENTER = 351.7564
MEAN_ANOMALY   = 8.3240

EPHEMERIS_TYPE = 0
CLASSIFICATION_TYPE = U
NORAD_CAT_ID   = 66615
ELEMENT_SET_NO = 999
REV_AT_EPOCH   = 273
BSTAR          = .69291E-3
MEAN_MOTION_DOT = .119264E-2
MEAN_MOTION_DDOT = 0

CCSDS_OMM_VERS = 2.0
CREATION_DATE  = 
ORIGINATOR     = 

OBJECT_NAME    = STARLINK-35391
OBJECT_ID      = 2025-270AE
CENTER_NAME    = EARTH
REF_FRAME      = TEME
TIME_SYSTEM    = UTC
MEAN_ELEMENT_THEORY = SGP/SGP4

EPOCH          = 2025-12-03T08:00:01.999008
MEAN_MOTION    = 15.77096250
ECCENTRICITY   = .0001609
INCLINATION    = 42.9988
RA_OF_ASC_NODE = 248.6071
ARG_OF_PERICENTER = 274.3528
MEAN_ANOMALY   = 111.9102

EPHEMERIS_TYPE = 0
CLASSIFICATION_TYPE = U
NORAD_CAT_ID   = 66616
ELEMENT_SET_NO = 999
REV_AT_EPOCH   = 299
BSTAR          = -.1258E-1
MEAN_MOTION_DOT = -.185E-1
MEAN_MOTION_DDOT = 0

CCSDS_OMM_VERS = 2.0
CREATION_DATE  = 
ORIGINATOR     = 

OBJECT_NAME    = SHENZHOU-22
OBJECT_ID      = 2025-272A
CENTER_NAME    = EARTH
REF_FRAME      = TEME
TIME_SYSTEM    = UTC
MEAN_ELEMENT_THEORY = SGP/SGP4

EPOCH          = 2025-12-03T08:40:01.753824
MEAN_MOTION    = 15.58580261
ECCENTRICITY   = .00100709
INCLINATION    = 41.4677
RA_OF_ASC_NODE = 73.6192
ARG_OF_PERICENTER = 319.5464
MEAN_ANOMALY   = 40.4624

EPHEMERIS_TYPE = 0
CLASSIFICATION_TYPE = U
NORAD_CAT_ID   = 66645
ELEMENT_SET_NO = 999
REV_AT_EPOCH   = 26257
BSTAR          = .34171532E-3
MEAN_MOTION_DOT = .26743E-3
MEAN_MOTION_DDOT = 0

CCSDS_OMM_VERS = 2.0
CREATION_DATE  = 
ORIGINATOR     = 

OBJECT_NAME    = CZ-2F R/B
OBJECT_ID      = 2025-272B
CENTER_NAME    = EARTH
REF_FRAME      = TEME
TIME_SYSTEM    = UTC
MEAN_ELEMENT_THEORY = SGP/SGP4

EPOCH          = 2025-11-26T11:17:54.506400
MEAN_MOTION    = 16.01945612
ECCENTRICITY   = .01210796
INCLINATION    = 41.4431
RA_OF_ASC_NODE = 114.9009
ARG_OF_PERICENTER = 133.7676
MEAN_ANOMALY   = 227.3272

EPHEMERIS_TYPE = 0
CLASSIFICATION_TYPE = U
NORAD_CAT_ID   = 66646
ELEMENT_SET_NO = 999
REV_AT_EPOCH   = 21
BSTAR          = .29319366E-3
MEAN_MOTION_DOT = .449059E-2
MEAN_MOTION_DDOT = .7567612E-5

CCSDS_OMM_VERS = 2.0
CREATION_DATE  = 
ORIGINATOR     = 

OBJECT_NAME    = COSMOS 2597 (RODNIK-S 22)
OBJECT_ID      = 2025-273A
CENTER_NAME    = EARTH
REF_FRAME      = TEME
TIME_SYSTEM    = UTC
MEAN_ELEMENT_THEORY = SGP/SGP4

EPOCH          = 2025-12-03T12:45:47.184768
MEAN_MOTION    = 12.41951055
ECCENTRICITY   = .0008136
INCLINATION    = 82.4981
RA_OF_ASC_NODE = 292.1677
ARG_OF_PERICENTER = 310.7500
MEAN_ANOMALY   = 49.2872

EPHEMERIS_TYPE = 0
CLASSIFICATION_TYPE = U
NORAD_CAT_ID   = 66647
ELEMENT_SET_NO = 999
REV_AT_EPOCH   = 99
BSTAR          = -.10431E-4
MEAN_MOTION_DOT = .8E-7
MEAN_MOTION_DDOT = 0

CCSDS_OMM_VERS = 2.0
CREATION_DATE  = 
ORIGINATOR     = 

OBJECT_NAME    = COSMOS 2598 (RODNIK-S 23)
OBJECT_ID      = 2025-273B
CENTER_NAME    = EARTH
REF_FRAME      = TEME
TIME_SYSTEM    = UTC
MEAN_ELEMENT_THEORY = SGP/SGP4

EPOCH          = 2025-12-03T12:43:01.481664
MEAN_MOTION    = 12.42252997
ECCENTRICITY   = .0008222
INCLINATION    = 82.5023
RA_OF_ASC_NODE = 292.1747
ARG_OF_PERICENTER = 299.3441
MEAN_ANOMALY   = 60.6816

EPHEMERIS_TYPE = 0
CLASSIFICATION_TYPE = U
NORAD_CAT_ID   = 66648
ELEMENT_SET_NO = 999
REV_AT_EPOCH   = 99
BSTAR          = -.10066E-3
MEAN_MOTION_DOT = -.4E-7
MEAN_MOTION_DDOT = 0

CCSDS_OMM_VERS = 2.0
CREATION_DATE  = 
ORIGINATOR     = 

OBJECT_NAME    = COSMOS 2599 (RODNIK-S 24)
OBJECT_ID      = 2025-273C
CENTER_NAME    = EARTH
REF_FRAME      = TEME
TIME_SYSTEM    = UTC
MEAN_ELEMENT_THEORY = SGP/SGP4

EPOCH          = 2025-12-03T12:48:20.460960
MEAN_MOTION    = 12.41671796
ECCENTRICITY   = .0008359
INCLINATION    = 82.5022
RA_OF_ASC_NODE = 292.1777
ARG_OF_PERICENTER = 321.0440
MEAN_ANOMALY   = 39.0036

EPHEMERIS_TYPE = 0
CLASSIFICATION_TYPE = U
NORAD_CAT_ID   = 66649
ELEMENT_SET_NO = 999
REV_AT_EPOCH   = 99
BSTAR          = -.30113E-4
MEAN_MOTION_DOT = .6E-7
MEAN_MOTION_DDOT = 0

CCSDS_OMM_VERS = 2.0
CREATION_DATE  = 
ORIGINATOR     = 

OBJECT_NAME    = 2025-274A
OBJECT_ID      = 2025-274A
CENTER_NAME    = EARTH
REF_FRAME      = TEME
TIME_SYSTEM    = UTC
MEAN_ELEMENT_THEORY = SGP/SGP4

EPOCH          = 2025-12-03T08:39:47.382048
MEAN_MOTION    = 14.91607903
ECCENTRICITY   = .0010423
INCLINATION    = 97.7383
RA_OF_ASC_NODE = 264.7216
ARG_OF_PERICENTER = 287.7006
MEAN_ANOMALY   = 72.3075

EPHEMERIS_TYPE = 0
CLASSIFICATION_TYPE = U
NORAD_CAT_ID   = 66650
ELEMENT_SET_NO = 999
REV_AT_EPOCH   = 100
BSTAR          = .30108E-3
MEAN_MOTION_DOT = .2969E-4
MEAN_MOTION_DDOT = 0

