STARLINK-35583          
1 66611U 25270Z   25337.45717220  .00072977  00000+0  42582-3 0  9999
2 66611  43.0004 247.8753 0004063 354.2877   5.7946 15.77467243  3008
STARLINK-36039          
1 66612U 25270AA  25337.45681676  .00111686  00000+0  64819-3 0  9993
2 66612  43.0004 247.8729 0004022 347.0774  12.9993 15.77433241  2892
STARLINK-36037          
1 66613U 25270AB  25337.45647043  .00125531  00000+0  72767-3 0  9999
2 66613  43.0001 247.8703 0004122 349.4174  10.6608 15.77412165  2893
STARLINK-36040          
1 66614U 25270AC  25337.45578917  .00186612  00000+0  10720-2 0  9990
2 66614  42.9981 247.8663 0004154 354.0514   6.0306 15.77424418  2730
STARLINK-35988          
1 66615U 25270AD  25337.45612351  .00119264  00000+0  69291-3 0  9999
2 66615  43.0005 247.8673 0003977 351.7564   8.3240 15.77383510  2731
STARLINK-35391          
1 66616U 25270AE  25337.33335647 -.01850000  00000+0 -12580-1 0  9997
2 66616  42.9988 248.6071 0001609 274.3528 111.9102 15.77096250  2999
SHENZHOU-22             
1 66645U 25272A   25337.36113141  .00026743  00000+0  34172-3 0  9996
2 66645  41.4677  73.6192 0010070 319.5464  40.4624 15.58580261262579
CZ-2F R/B               
1 66646U 25272B   25330.47076975  .00449059  75676-5  29319-3 0  9998
2 66646  41.4431 114.9009 0121079 133.7676 227.3272 16.01945612   217
COSMOS 2597 (RODNIK-S *)
1 66647U 25273A   25337.53179612  .00000008  00000+0 -10431-4 0  9993
2 66647  82.4981 292.1677 0008136 310.7500  49.2872 12.41951055   994
COSMOS 2598 (RODNIK-S *)
1 66648U 25273B   25337.52987826 -.00000004  00000+0 -10066-3 0  9997
2 66648  82.5023 292.1747 0008222 299.3441  60.6816 12.42252997   998
COSMOS 2599 (RODNIK-S *)
1 66649U 25273C   25337.53357015  .00000006  00000+0 -30113-4 0  9997
2 66649  82.5022 292.1777 0008359 321.0440  39.0036 12.41671796   999
2025-274A               
1 66650U 25274A   25337.36096507  .00002969  00000+0  30108-3 0  9999
2 66650  97.7383 264.7216 0010423 287.7006  72.3075 14.91607903  1005
